{
  "type": "FeatureCollection",
  "features": [
    {
      "type": "Feature",
      "properties": {
        "norad_id": 44334,
        "name": "EUTELSAT 7C",
        "group": "eutelsat",
        "lat": 0.030405600820159348,
        "lon": -42.3522775018635,
        "alt_km": 35778.07536596107,
        "timestamp": "2025-12-21T14:40:47.582219+00:00",
        "meta_object_name": "EUTELSAT 7C",
        "meta_object_id": "2019-034B",
        "meta_epoch": "2025-12-21T03:32:38.808096",
        "meta_mean_motion": 1.00275585,
        "meta_eccentricity": 0.00032957,
        "meta_inclination": 0.0735,
        "meta_ra_of_asc_node": 180.1639,
        "meta_arg_of_pericenter": 76.9681,
        "meta_mean_anomaly": 252.9905,
        "meta_ephemeris_type": 0,
        "meta_classification_type": "U",
        "meta_norad_cat_id": 44334,
        "meta_element_set_no": 999,
        "meta_rev_at_epoch": 505,
        "meta_bstar": 0,
        "meta_mean_motion_dot": 7.2e-07,
        "meta_mean_motion_ddot": 0,
        "tle_line1": "1 44334U 19034B   25355.14767139  .00000072  00000+0  00000+0 0  9990",
        "tle_line2": "2 44334   0.0735 180.1639 0003295  76.9681 252.9905  1.00275585  5054"
      },
      "geometry": {
        "type": "Point",
        "coordinates": [
          -42.3522775018635,
          0.030405600820159348
        ]
      }
    },
    {
      "type": "Feature",
      "properties": {
        "norad_id": 44624,
        "name": "EUTELSAT 5 WEST B",
        "group": "eutelsat",
        "lat": -0.053445533845642205,
        "lon": -54.3569964024709,
        "alt_km": 35775.844668101156,
        "timestamp": "2025-12-21T14:40:47.582231+00:00",
        "meta_object_name": "EUTELSAT 5 WEST B",
        "meta_object_id": "2019-067A",
        "meta_epoch": "2025-12-21T03:40:38.749728",
        "meta_mean_motion": 1.00271336,
        "meta_eccentricity": 0.00030096,
        "meta_inclination": 0.0667,
        "meta_ra_of_asc_node": 336.125,
        "meta_arg_of_pericenter": 293.8202,
        "meta_mean_anomaly": 230.1981,
        "meta_ephemeris_type": 0,
        "meta_classification_type": "U",
        "meta_norad_cat_id": 44624,
        "meta_element_set_no": 999,
        "meta_rev_at_epoch": 2265,
        "meta_bstar": 0,
        "meta_mean_motion_dot": -1.9e-07,
        "meta_mean_motion_ddot": 0,
        "tle_line1": "1 44624U 19067A   25355.15322627 -.00000019  00000+0  00000+0 0  9990",
        "tle_line2": "2 44624   0.0667 336.1250 0003009 293.8202 230.1981  1.00271336 22651"
      },
      "geometry": {
        "type": "Point",
        "coordinates": [
          -54.3569964024709,
          -0.053445533845642205
        ]
      }
    },
    {
      "type": "Feature",
      "properties": {
        "norad_id": 45027,
        "name": "EUTELSAT KONNECT",
        "group": "eutelsat",
        "lat": -0.061879752134169644,
        "lon": -42.14779217495699,
        "alt_km": 35779.02020267142,
        "timestamp": "2025-12-21T14:40:47.582242+00:00",
        "meta_object_name": "EUTELSAT KONNECT",
        "meta_object_id": "2020-005B",
        "meta_epoch": "2025-12-21T03:32:38.808096",
        "meta_mean_motion": 1.00277731,
        "meta_eccentricity": 0.00017067,
        "meta_inclination": 0.0689,
        "meta_ra_of_asc_node": 95.0259,
        "meta_arg_of_pericenter": 180.8319,
        "meta_mean_anomaly": 234.4854,
        "meta_ephemeris_type": 0,
        "meta_classification_type": "U",
        "meta_norad_cat_id": 45027,
        "meta_element_set_no": 999,
        "meta_rev_at_epoch": 2255,
        "meta_bstar": 0,
        "meta_mean_motion_dot": 7.4e-07,
        "meta_mean_motion_ddot": 0,
        "tle_line1": "1 45027U 20005B   25355.14767139  .00000074  00000+0  00000+0 0  9992",
        "tle_line2": "2 45027   0.0689  95.0259 0001706 180.8319 234.4854  1.00277731 22559"
      },
      "geometry": {
        "type": "Point",
        "coordinates": [
          -42.14779217495699,
          -0.061879752134169644
        ]
      }
    },
    {
      "type": "Feature",
      "properties": {
        "norad_id": 49056,
        "name": "EUTELSAT QUANTUM",
        "group": "eutelsat",
        "lat": -0.019107779139144868,
        "lon": -1.6361670707672746,
        "alt_km": 35783.094455616796,
        "timestamp": "2025-12-21T14:40:47.582254+00:00",
        "meta_object_name": "EUTELSAT QUANTUM",
        "meta_object_id": "2021-069B",
        "meta_epoch": "2025-12-21T05:59:38.815584",
        "meta_mean_motion": 1.00272335,
        "meta_eccentricity": 0.00033486,
        "meta_inclination": 0.0211,
        "meta_ra_of_asc_node": 39.1819,
        "meta_arg_of_pericenter": 240.6155,
        "meta_mean_anomaly": 307.8928,
        "meta_ephemeris_type": 0,
        "meta_classification_type": "U",
        "meta_norad_cat_id": 49056,
        "meta_element_set_no": 999,
        "meta_rev_at_epoch": 1614,
        "meta_bstar": 0,
        "meta_mean_motion_dot": 1.49e-06,
        "meta_mean_motion_ddot": 0,
        "tle_line1": "1 49056U 21069B   25355.24975481  .00000149  00000+0  00000+0 0  9994",
        "tle_line2": "2 49056   0.0211  39.1819 0003348 240.6155 307.8928  1.00272335 16144"
      },
      "geometry": {
        "type": "Point",
        "coordinates": [
          -1.6361670707672746,
          -0.019107779139144868
        ]
      }
    },
    {
      "type": "Feature",
      "properties": {
        "norad_id": 53765,
        "name": "EUTELSAT KONNECT VHTS",
        "group": "eutelsat",
        "lat": -0.05082035542770739,
        "lon": -46.603559683555915,
        "alt_km": 35783.40885170983,
        "timestamp": "2025-12-21T14:40:47.582266+00:00",
        "meta_object_name": "EUTELSAT KONNECT VHTS",
        "meta_object_id": "2022-110A",
        "meta_epoch": "2025-12-21T03:32:38.808096",
        "meta_mean_motion": 1.00273259,
        "meta_eccentricity": 0.00027862,
        "meta_inclination": 0.0618,
        "meta_ra_of_asc_node": 99.8078,
        "meta_arg_of_pericenter": 134.255,
        "meta_mean_anomaly": 271.8139,
        "meta_ephemeris_type": 0,
        "meta_classification_type": "U",
        "meta_norad_cat_id": 53765,
        "meta_element_set_no": 999,
        "meta_rev_at_epoch": 504,
        "meta_bstar": 0,
        "meta_mean_motion_dot": 4.1e-07,
        "meta_mean_motion_ddot": 0,
        "tle_line1": "1 53765U 22110A   25355.14767139  .00000041  00000+0  00000+0 0  9993",
        "tle_line2": "2 53765   0.0618  99.8078 0002786 134.2550 271.8139  1.00273259  5046"
      },
      "geometry": {
        "type": "Point",
        "coordinates": [
          -46.603559683555915,
          -0.05082035542770739
        ]
      }
    },
    {
      "type": "Feature",
      "properties": {
        "norad_id": 54048,
        "name": "EUTELSAT HOTBIRD 13F",
        "group": "eutelsat",
        "lat": 0.012448502104924505,
        "lon": -36.39425748411419,
        "alt_km": 35777.71955883543,
        "timestamp": "2025-12-21T14:40:47.582277+00:00",
        "meta_object_name": "EUTELSAT HOTBIRD 13F",
        "meta_object_id": "2022-134A",
        "meta_epoch": "2025-12-21T02:59:15.326880",
        "meta_mean_motion": 1.00274346,
        "meta_eccentricity": 0.00022836,
        "meta_inclination": 0.0523,
        "meta_ra_of_asc_node": 292.1414,
        "meta_arg_of_pericenter": 68.9297,
        "meta_mean_anomaly": 146.6896,
        "meta_ephemeris_type": 0,
        "meta_classification_type": "U",
        "meta_norad_cat_id": 54048,
        "meta_element_set_no": 999,
        "meta_rev_at_epoch": 1159,
        "meta_bstar": 0,
        "meta_mean_motion_dot": 1.11e-06,
        "meta_mean_motion_ddot": 0,
        "tle_line1": "1 54048U 22134A   25355.12448295  .00000111  00000+0  00000+0 0  9999",
        "tle_line2": "2 54048   0.0523 292.1414 0002283  68.9297 146.6896  1.00274346 11595"
      },
      "geometry": {
        "type": "Point",
        "coordinates": [
          -36.39425748411419,
          0.012448502104924505
        ]
      }
    },
    {
      "type": "Feature",
      "properties": {
        "norad_id": 54225,
        "name": "EUTELSAT HOTBIRD 13G",
        "group": "eutelsat",
        "lat": 0.023834785734260944,
        "lon": -36.369774988361684,
        "alt_km": 35791.8814890022,
        "timestamp": "2025-12-21T14:40:47.582289+00:00",
        "meta_object_name": "EUTELSAT HOTBIRD 13G",
        "meta_object_id": "2022-146A",
        "meta_epoch": "2025-12-21T03:24:38.628000",
        "meta_mean_motion": 1.00273909,
        "meta_eccentricity": 0.0001862,
        "meta_inclination": 0.0535,
        "meta_ra_of_asc_node": 228.7562,
        "meta_arg_of_pericenter": 309.3055,
        "meta_mean_anomaly": 336.0609,
        "meta_ephemeris_type": 0,
        "meta_classification_type": "U",
        "meta_norad_cat_id": 54225,
        "meta_element_set_no": 999,
        "meta_rev_at_epoch": 568,
        "meta_bstar": 0,
        "meta_mean_motion_dot": 1.1e-06,
        "meta_mean_motion_ddot": 0,
        "tle_line1": "1 54225U 22146A   25355.14211375  .00000110  00000+0  00000+0 0  9997",
        "tle_line2": "2 54225   0.0535 228.7562 0001862 309.3055 336.0609  1.00273909  5684"
      },
      "geometry": {
        "type": "Point",
        "coordinates": [
          -36.369774988361684,
          0.023834785734260944
        ]
      }
    }
  ]
}